[{"OBJECT_NAME":"ICEYE-X51","OBJECT_ID":"2025-052AZ","EPOCH":"2026-03-09T22:06:54.407520","MEAN_MOTION":15.00892494,"ECCENTRICITY":0.00020982,"INCLINATION":97.7349,"RA_OF_ASC_NODE":324.3635,"ARG_OF_PERICENTER":65.1031,"MEAN_ANOMALY":295.041,"EPHEMERIS_TYPE":0,"CLASSIFICATION_TYPE":"U","NORAD_CAT_ID":63257,"ELEMENT_SET_NO":999,"REV_AT_EPOCH":5391,"BSTAR":0.00046355347,"MEAN_MOTION_DOT":5.842e-5,"MEAN_MOTION_DDOT":0},{"OBJECT_NAME":"STARLINK-34059","OBJECT_ID":"2025-094J","EPOCH":"2026-03-09T20:25:23.722464","MEAN_MOTION":14.98344933,"ECCENTRICITY":0.00034434,"INCLINATION":70.0018,"RA_OF_ASC_NODE":234.1973,"ARG_OF_PERICENTER":272.8074,"MEAN_ANOMALY":87.2691,"EPHEMERIS_TYPE":0,"CLASSIFICATION_TYPE":"U","NORAD_CAT_ID":63872,"ELEMENT_SET_NO":999,"REV_AT_EPOCH":4722,"BSTAR":0.0004846981,"MEAN_MOTION_DOT":5.697e-5,"MEAN_MOTION_DDOT":0}]
